[
  {
    "OBJECT_NAME": "STARLINK-4479",
    "OBJECT_ID": "2022-097AD",
    "EPOCH": "2025-05-24T11:41:23.414784",
    "MEAN_MOTION": 15.08833256,
    "ECCENTRICITY": 0.0001319,
    "INCLINATION": 53.2183,
    "RA_OF_ASC_NODE": 332.402,
    "ARG_OF_PERICENTER": 91.0093,
    "MEAN_ANOMALY": 269.1051,
    "EPHEMERIS_TYPE": 0,
    "CLASSIFICATION_TYPE": "U",
    "NORAD_CAT_ID": 53415,
    "ELEMENT_SET_NO": 999,
    "REV_AT_EPOCH": 15496,
    "BSTAR": 3.934e-05,
    "MEAN_MOTION_DOT": 3.38e-06,
    "MEAN_MOTION_DDOT": 0
  },
  {
    "OBJECT_NAME": "STARLINK-4480",
    "OBJECT_ID": "2022-097AE",
    "EPOCH": "2025-05-24T12:55:34.087008",
    "MEAN_MOTION": 15.08838002,
    "ECCENTRICITY": 0.0001288,
    "INCLINATION": 53.2175,
    "RA_OF_ASC_NODE": 332.1194,
    "ARG_OF_PERICENTER": 89.2074,
    "MEAN_ANOMALY": 270.9066,
    "EPHEMERIS_TYPE": 0,
    "CLASSIFICATION_TYPE": "U",
    "NORAD_CAT_ID": 53416,
    "ELEMENT_SET_NO": 999,
    "REV_AT_EPOCH": 15497,
    "BSTAR": 3.7902e-05,
    "MEAN_MOTION_DOT": 3.15e-06,
    "MEAN_MOTION_DDOT": 0
  },
  {
    "OBJECT_NAME": "STARLINK-4484",
    "OBJECT_ID": "2022-097AF",
    "EPOCH": "2025-05-24T17:57:38.301408",
    "MEAN_MOTION": 15.08825629,
    "ECCENTRICITY": 0.0001431,
    "INCLINATION": 53.2196,
    "RA_OF_ASC_NODE": 331.2287,
    "ARG_OF_PERICENTER": 103.5019,
    "MEAN_ANOMALY": 256.6133,
    "EPHEMERIS_TYPE": 0,
    "CLASSIFICATION_TYPE": "U",
    "NORAD_CAT_ID": 53417,
    "ELEMENT_SET_NO": 999,
    "REV_AT_EPOCH": 15454,
    "BSTAR": 0.00012058,
    "MEAN_MOTION_DOT": 1.631e-05,
    "MEAN_MOTION_DDOT": 0
  },
  {
    "OBJECT_NAME": "STARLINK-4481",
    "OBJECT_ID": "2022-097AG",
    "EPOCH": "2025-05-24T17:00:35.790048",
    "MEAN_MOTION": 15.08832464,
    "ECCENTRICITY": 0.00018,
    "INCLINATION": 53.2178,
    "RA_OF_ASC_NODE": 320.9677,
    "ARG_OF_PERICENTER": 98.7152,
    "MEAN_ANOMALY": 261.4044,
    "EPHEMERIS_TYPE": 0,
    "CLASSIFICATION_TYPE": "U",
    "NORAD_CAT_ID": 53418,
    "ELEMENT_SET_NO": 999,
    "REV_AT_EPOCH": 15468,
    "BSTAR": 3.0133e-06,
    "MEAN_MOTION_DOT": -2.4e-06,
    "MEAN_MOTION_DDOT": 0
  },
  {
    "OBJECT_NAME": "STARLINK-4476",
    "OBJECT_ID": "2022-097AH",
    "EPOCH": "2025-05-24T13:06:10.800576",
    "MEAN_MOTION": 15.08834179,
    "ECCENTRICITY": 0.0001376,
    "INCLINATION": 53.2186,
    "RA_OF_ASC_NODE": 332.1357,
    "ARG_OF_PERICENTER": 89.399,
    "MEAN_ANOMALY": 270.716,
    "EPHEMERIS_TYPE": 0,
    "CLASSIFICATION_TYPE": "U",
    "NORAD_CAT_ID": 53419,
    "ELEMENT_SET_NO": 999,
    "REV_AT_EPOCH": 15497,
    "BSTAR": 3.5318e-05,
    "MEAN_MOTION_DOT": 2.74e-06,
    "MEAN_MOTION_DDOT": 0
  },
  {
    "OBJECT_NAME": "STARLINK-4552",
    "OBJECT_ID": "2022-097AJ",
    "EPOCH": "2025-05-24T12:50:16.523808",
    "MEAN_MOTION": 15.08838742,
    "ECCENTRICITY": 0.0001305,
    "INCLINATION": 53.2181,
    "RA_OF_ASC_NODE": 332.1829,
    "ARG_OF_PERICENTER": 95.9082,
    "MEAN_ANOMALY": 264.2059,
    "EPHEMERIS_TYPE": 0,
    "CLASSIFICATION_TYPE": "U",
    "NORAD_CAT_ID": 53420,
    "ELEMENT_SET_NO": 999,
    "REV_AT_EPOCH": 15497,
    "BSTAR": -1.3088e-05,
    "MEAN_MOTION_DOT": -4.96e-06,
    "MEAN_MOTION_DDOT": 0
  },
  {
    "OBJECT_NAME": "STARLINK-4545",
    "OBJECT_ID": "2022-097AK",
    "EPOCH": "2025-05-24T19:22:24.836160",
    "MEAN_MOTION": 15.08849536,
    "ECCENTRICITY": 0.0001852,
    "INCLINATION": 53.2193,
    "RA_OF_ASC_NODE": 330.9616,
    "ARG_OF_PERICENTER": 82.1958,
    "MEAN_ANOMALY": 277.9244,
    "EPHEMERIS_TYPE": 0,
    "CLASSIFICATION_TYPE": "U",
    "NORAD_CAT_ID": 53421,
    "ELEMENT_SET_NO": 999,
    "REV_AT_EPOCH": 15455,
    "BSTAR": -9.1219e-05,
    "MEAN_MOTION_DOT": -1.74e-05,
    "MEAN_MOTION_DDOT": 0
  },
  {
    "OBJECT_NAME": "STARLINK-4546",
    "OBJECT_ID": "2022-097AL",
    "EPOCH": "2025-05-24T17:25:49.743552",
    "MEAN_MOTION": 15.08842371,
    "ECCENTRICITY": 0.0001352,
    "INCLINATION": 53.217,
    "RA_OF_ASC_NODE": 331.3249,
    "ARG_OF_PERICENTER": 91.6483,
    "MEAN_ANOMALY": 268.4664,
    "EPHEMERIS_TYPE": 0,
    "CLASSIFICATION_TYPE": "U",
    "NORAD_CAT_ID": 53422,
    "ELEMENT_SET_NO": 999,
    "REV_AT_EPOCH": 15454,
    "BSTAR": 3.4068e-05,
    "MEAN_MOTION_DOT": 2.54e-06,
    "MEAN_MOTION_DDOT": 0
  },
  {
    "OBJECT_NAME": "STARLINK-4539",
    "OBJECT_ID": "2022-097AM",
    "EPOCH": "2025-05-24T12:56:57.613344",
    "MEAN_MOTION": 15.08834978,
    "ECCENTRICITY": 0.0001344,
    "INCLINATION": 53.2183,
    "RA_OF_ASC_NODE": 332.1733,
    "ARG_OF_PERICENTER": 91.8336,
    "MEAN_ANOMALY": 268.281,
    "EPHEMERIS_TYPE": 0,
    "CLASSIFICATION_TYPE": "U",
    "NORAD_CAT_ID": 53423,
    "ELEMENT_SET_NO": 999,
    "REV_AT_EPOCH": 15497,
    "BSTAR": -1.4239e-05,
    "MEAN_MOTION_DOT": -5.14e-06,
    "MEAN_MOTION_DDOT": 0
  },
  {
    "OBJECT_NAME": "STARLINK-4532",
    "OBJECT_ID": "2022-097AN",
    "EPOCH": "2025-05-24T17:15:14.188608",
    "MEAN_MOTION": 15.08839994,
    "ECCENTRICITY": 0.000139,
    "INCLINATION": 53.2179,
    "RA_OF_ASC_NODE": 331.3605,
    "ARG_OF_PERICENTER": 86.1483,
    "MEAN_ANOMALY": 273.9668,
    "EPHEMERIS_TYPE": 0,
    "CLASSIFICATION_TYPE": "U",
    "NORAD_CAT_ID": 53424,
    "ELEMENT_SET_NO": 999,
    "REV_AT_EPOCH": 15454,
    "BSTAR": 1.4388e-05,
    "MEAN_MOTION_DOT": -5.9e-07,
    "MEAN_MOTION_DDOT": 0
  },
  {
    "OBJECT_NAME": "STARLINK-4531",
    "OBJECT_ID": "2022-097AP",
    "EPOCH": "2025-05-24T12:44:58.534656",
    "MEAN_MOTION": 15.08838614,
    "ECCENTRICITY": 0.000137,
    "INCLINATION": 53.2178,
    "RA_OF_ASC_NODE": 332.1997,
    "ARG_OF_PERICENTER": 95.1287,
    "MEAN_ANOMALY": 264.9861,
    "EPHEMERIS_TYPE": 0,
    "CLASSIFICATION_TYPE": "U",
    "NORAD_CAT_ID": 53425,
    "ELEMENT_SET_NO": 999,
    "REV_AT_EPOCH": 15496,
    "BSTAR": -2.346e-05,
    "MEAN_MOTION_DOT": -6.61e-06,
    "MEAN_MOTION_DDOT": 0
  },
  {
    "OBJECT_NAME": "STARLINK-4558",
    "OBJECT_ID": "2022-097AQ",
    "EPOCH": "2025-05-24T11:58:39.167616",
    "MEAN_MOTION": 15.08841997,
    "ECCENTRICITY": 0.0001156,
    "INCLINATION": 53.2181,
    "RA_OF_ASC_NODE": 322.5045,
    "ARG_OF_PERICENTER": 96.7251,
    "MEAN_ANOMALY": 263.3873,
    "EPHEMERIS_TYPE": 0,
    "CLASSIFICATION_TYPE": "U",
    "NORAD_CAT_ID": 53426,
    "ELEMENT_SET_NO": 999,
    "REV_AT_EPOCH": 15512,
    "BSTAR": 0.00011021,
    "MEAN_MOTION_DOT": 1.467e-05,
    "MEAN_MOTION_DDOT": 0
  },
  {
    "OBJECT_NAME": "STARLINK-4543",
    "OBJECT_ID": "2022-097AT",
    "EPOCH": "2025-05-24T19:50:15.522720",
    "MEAN_MOTION": 15.08839315,
    "ECCENTRICITY": 0.0001267,
    "INCLINATION": 53.2177,
    "RA_OF_ASC_NODE": 320.9931,
    "ARG_OF_PERICENTER": 90.1112,
    "MEAN_ANOMALY": 270.0026,
    "EPHEMERIS_TYPE": 0,
    "CLASSIFICATION_TYPE": "U",
    "NORAD_CAT_ID": 53429,
    "ELEMENT_SET_NO": 999,
    "REV_AT_EPOCH": 15469,
    "BSTAR": 1.2355e-06,
    "MEAN_MOTION_DOT": -2.68e-06,
    "MEAN_MOTION_DDOT": 0
  },
  {
    "OBJECT_NAME": "STARLINK-4538",
    "OBJECT_ID": "2022-097AU",
    "EPOCH": "2025-05-24T11:42:43.290720",
    "MEAN_MOTION": 15.08838569,
    "ECCENTRICITY": 0.0001436,
    "INCLINATION": 53.2183,
    "RA_OF_ASC_NODE": 322.4345,
    "ARG_OF_PERICENTER": 86.3493,
    "MEAN_ANOMALY": 273.7663,
    "EPHEMERIS_TYPE": 0,
    "CLASSIFICATION_TYPE": "U",
    "NORAD_CAT_ID": 53430,
    "ELEMENT_SET_NO": 999,
    "REV_AT_EPOCH": 15510,
    "BSTAR": 3.9216e-05,
    "MEAN_MOTION_DOT": 3.36e-06,
    "MEAN_MOTION_DDOT": 0
  }
]