STARLINK-4479           
1 53415U 22097AD  25144.48707656  .00000338  00000+0  39340-4 0  9993
2 53415  53.2183 332.4020 0001319  91.0093 269.1051 15.08833256154962
STARLINK-4480           
1 53416U 22097AE  25144.53858897  .00000315  00000+0  37902-4 0  9991
2 53416  53.2175 332.1194 0001288  89.2074 270.9066 15.08838002154977
STARLINK-4484           
1 53417U 22097AF  25144.74835997  .00001631  00000+0  12058-3 0  9997
2 53417  53.2196 331.2287 0001431 103.5019 256.6133 15.08825629154543
STARLINK-4481           
1 53418U 22097AG  25144.70874757 -.00000240  00000+0  30133-5 0  9993
2 53418  53.2178 320.9677 0001800  98.7152 261.4044 15.08832464154680
STARLINK-4476           
1 53419U 22097AH  25144.54595834  .00000274  00000+0  35318-4 0  9997
2 53419  53.2186 332.1357 0001376  89.3990 270.7160 15.08834179154973
STARLINK-4552           
1 53420U 22097AJ  25144.53491347 -.00000496  00000+0 -13088-4 0  9990
2 53420  53.2181 332.1829 0001305  95.9082 264.2059 15.08838742154976
STARLINK-4545           
1 53421U 22097AK  25144.80723190 -.00001740  00000+0 -91219-4 0  9990
2 53421  53.2193 330.9616 0001852  82.1958 277.9244 15.08849536154551
STARLINK-4546           
1 53422U 22097AL  25144.72627018  .00000254  00000+0  34068-4 0  9990
2 53422  53.2170 331.3249 0001352  91.6483 268.4664 15.08842371154547
STARLINK-4539           
1 53423U 22097AM  25144.53955571 -.00000514  00000+0 -14239-4 0  9997
2 53423  53.2183 332.1733 0001344  91.8336 268.2810 15.08834978154971
STARLINK-4532           
1 53424U 22097AN  25144.71891422 -.00000059  00000+0  14388-4 0  9990
2 53424  53.2179 331.3605 0001390  86.1483 273.9668 15.08839994154547
STARLINK-4531           
1 53425U 22097AP  25144.53123304 -.00000661  00000+0 -23460-4 0  9999
2 53425  53.2178 332.1997 0001370  95.1287 264.9861 15.08838614154969
STARLINK-4558           
1 53426U 22097AQ  25144.49906444  .00001467  00000+0  11021-3 0  9991
2 53426  53.2181 322.5045 0001156  96.7251 263.3873 15.08841997155124
STARLINK-4543           
1 53429U 22097AT  25144.82656855 -.00000268  00000+0  12355-5 0  9991
2 53429  53.2177 320.9931 0001267  90.1112 270.0026 15.08839315154692
STARLINK-4538           
1 53430U 22097AU  25144.48800105  .00000336  00000+0  39216-4 0  9993
2 53430  53.2183 322.4345 0001436  86.3493 273.7663 15.08838569155108
